<?xml version="1.0" encoding="UTF-8"?>
<ndm xmlns:xsi="http://www.w3.org/2001/XMLSchema-instance" xsi:noNamespaceSchemaLocation="https://sanaregistry.org/r/ndmxml_unqualified/ndmxml-2.0.0-master-2.0.xsd">
<omm id="CCSDS_OMM_VERS" version="2.0">
<header><CREATION_DATE/><ORIGINATOR/></header><body><segment><metadata><OBJECT_NAME>ORBCOMM FM33</OBJECT_NAME><OBJECT_ID>1999-065D</OBJECT_ID><CENTER_NAME>EARTH</CENTER_NAME><REF_FRAME>TEME</REF_FRAME><TIME_SYSTEM>UTC</TIME_SYSTEM><MEAN_ELEMENT_THEORY>SGP4</MEAN_ELEMENT_THEORY></metadata><data><meanElements><EPOCH>2024-04-27T20:24:48.218976</EPOCH><MEAN_MOTION>14.37622128</MEAN_MOTION><ECCENTRICITY>.0007348</ECCENTRICITY><INCLINATION>45.0263</INCLINATION><RA_OF_ASC_NODE>169.9388</RA_OF_ASC_NODE><ARG_OF_PERICENTER>145.0382</ARG_OF_PERICENTER><MEAN_ANOMALY>25.6393</MEAN_ANOMALY></meanElements><tleParameters><EPHEMERIS_TYPE>0</EPHEMERIS_TYPE><CLASSIFICATION_TYPE>U</CLASSIFICATION_TYPE><NORAD_CAT_ID>25983</NORAD_CAT_ID><ELEMENT_SET_NO>999</ELEMENT_SET_NO><REV_AT_EPOCH>27624</REV_AT_EPOCH><BSTAR>.91252E-3</BSTAR><MEAN_MOTION_DOT>.2624E-4</MEAN_MOTION_DOT><MEAN_MOTION_DDOT>0</MEAN_MOTION_DDOT></tleParameters></data></segment></body></omm>
<omm id="CCSDS_OMM_VERS" version="2.0">
<header><CREATION_DATE/><ORIGINATOR/></header><body><segment><metadata><OBJECT_NAME>ORBCOMM FM36</OBJECT_NAME><OBJECT_ID>1999-065E</OBJECT_ID><CENTER_NAME>EARTH</CENTER_NAME><REF_FRAME>TEME</REF_FRAME><TIME_SYSTEM>UTC</TIME_SYSTEM><MEAN_ELEMENT_THEORY>SGP4</MEAN_ELEMENT_THEORY></metadata><data><meanElements><EPOCH>2024-04-27T11:46:25.541760</EPOCH><MEAN_MOTION>14.35508957</MEAN_MOTION><ECCENTRICITY>.0002225</ECCENTRICITY><INCLINATION>45.0386</INCLINATION><RA_OF_ASC_NODE>256.9218</RA_OF_ASC_NODE><ARG_OF_PERICENTER>354.5043</ARG_OF_PERICENTER><MEAN_ANOMALY>5.5780</MEAN_ANOMALY></meanElements><tleParameters><EPHEMERIS_TYPE>0</EPHEMERIS_TYPE><CLASSIFICATION_TYPE>U</CLASSIFICATION_TYPE><NORAD_CAT_ID>25984</NORAD_CAT_ID><ELEMENT_SET_NO>999</ELEMENT_SET_NO><REV_AT_EPOCH>27522</REV_AT_EPOCH><BSTAR>.13259E-2</BSTAR><MEAN_MOTION_DOT>.371E-4</MEAN_MOTION_DOT><MEAN_MOTION_DDOT>0</MEAN_MOTION_DDOT></tleParameters></data></segment></body></omm>
<omm id="CCSDS_OMM_VERS" version="2.0">
<header><CREATION_DATE/><ORIGINATOR/></header><body><segment><metadata><OBJECT_NAME>ORBCOMM FM35</OBJECT_NAME><OBJECT_ID>1999-065F</OBJECT_ID><CENTER_NAME>EARTH</CENTER_NAME><REF_FRAME>TEME</REF_FRAME><TIME_SYSTEM>UTC</TIME_SYSTEM><MEAN_ELEMENT_THEORY>SGP4</MEAN_ELEMENT_THEORY></metadata><data><meanElements><EPOCH>2024-04-27T19:22:16.584096</EPOCH><MEAN_MOTION>14.35093972</MEAN_MOTION><ECCENTRICITY>.000326</ECCENTRICITY><INCLINATION>45.0388</INCLINATION><RA_OF_ASC_NODE>258.0355</RA_OF_ASC_NODE><ARG_OF_PERICENTER>141.2832</ARG_OF_PERICENTER><MEAN_ANOMALY>218.8249</MEAN_ANOMALY></meanElements><tleParameters><EPHEMERIS_TYPE>0</EPHEMERIS_TYPE><CLASSIFICATION_TYPE>U</CLASSIFICATION_TYPE><NORAD_CAT_ID>25985</NORAD_CAT_ID><ELEMENT_SET_NO>999</ELEMENT_SET_NO><REV_AT_EPOCH>27507</REV_AT_EPOCH><BSTAR>.95248E-3</BSTAR><MEAN_MOTION_DOT>.2602E-4</MEAN_MOTION_DOT><MEAN_MOTION_DDOT>0</MEAN_MOTION_DDOT></tleParameters></data></segment></body></omm>
<omm id="CCSDS_OMM_VERS" version="2.0">
<header><CREATION_DATE/><ORIGINATOR/></header><body><segment><metadata><OBJECT_NAME>ORBCOMM FM34</OBJECT_NAME><OBJECT_ID>1999-065G</OBJECT_ID><CENTER_NAME>EARTH</CENTER_NAME><REF_FRAME>TEME</REF_FRAME><TIME_SYSTEM>UTC</TIME_SYSTEM><MEAN_ELEMENT_THEORY>SGP4</MEAN_ELEMENT_THEORY></metadata><data><meanElements><EPOCH>2024-04-27T16:59:01.763520</EPOCH><MEAN_MOTION>14.35061416</MEAN_MOTION><ECCENTRICITY>.0002525</ECCENTRICITY><INCLINATION>45.0385</INCLINATION><RA_OF_ASC_NODE>259.0368</RA_OF_ASC_NODE><ARG_OF_PERICENTER>74.0044</ARG_OF_PERICENTER><MEAN_ANOMALY>286.1082</MEAN_ANOMALY></meanElements><tleParameters><EPHEMERIS_TYPE>0</EPHEMERIS_TYPE><CLASSIFICATION_TYPE>U</CLASSIFICATION_TYPE><NORAD_CAT_ID>25986</NORAD_CAT_ID><ELEMENT_SET_NO>999</ELEMENT_SET_NO><REV_AT_EPOCH>27517</REV_AT_EPOCH><BSTAR>.10584E-2</BSTAR><MEAN_MOTION_DOT>.2905E-4</MEAN_MOTION_DOT><MEAN_MOTION_DDOT>0</MEAN_MOTION_DDOT></tleParameters></data></segment></body></omm>
<omm id="CCSDS_OMM_VERS" version="2.0">
<header><CREATION_DATE/><ORIGINATOR/></header><body><segment><metadata><OBJECT_NAME>ORBCOMM FM38</OBJECT_NAME><OBJECT_ID>2008-031A</OBJECT_ID><CENTER_NAME>EARTH</CENTER_NAME><REF_FRAME>TEME</REF_FRAME><TIME_SYSTEM>UTC</TIME_SYSTEM><MEAN_ELEMENT_THEORY>SGP4</MEAN_ELEMENT_THEORY></metadata><data><meanElements><EPOCH>2024-04-27T22:04:33.101184</EPOCH><MEAN_MOTION>14.77436404</MEAN_MOTION><ECCENTRICITY>.0005167</ECCENTRICITY><INCLINATION>48.4388</INCLINATION><RA_OF_ASC_NODE>128.4106</RA_OF_ASC_NODE><ARG_OF_PERICENTER>53.3623</ARG_OF_PERICENTER><MEAN_ANOMALY>306.7765</MEAN_ANOMALY></meanElements><tleParameters><EPHEMERIS_TYPE>0</EPHEMERIS_TYPE><CLASSIFICATION_TYPE>U</CLASSIFICATION_TYPE><NORAD_CAT_ID>33060</NORAD_CAT_ID><ELEMENT_SET_NO>999</ELEMENT_SET_NO><REV_AT_EPOCH>85326</REV_AT_EPOCH><BSTAR>.64243E-3</BSTAR><MEAN_MOTION_DOT>.4419E-4</MEAN_MOTION_DOT><MEAN_MOTION_DDOT>0</MEAN_MOTION_DDOT></tleParameters></data></segment></body></omm>
<omm id="CCSDS_OMM_VERS" version="2.0">
<header><CREATION_DATE/><ORIGINATOR/></header><body><segment><metadata><OBJECT_NAME>ORBCOMM FM41</OBJECT_NAME><OBJECT_ID>2008-031B</OBJECT_ID><CENTER_NAME>EARTH</CENTER_NAME><REF_FRAME>TEME</REF_FRAME><TIME_SYSTEM>UTC</TIME_SYSTEM><MEAN_ELEMENT_THEORY>SGP4</MEAN_ELEMENT_THEORY></metadata><data><meanElements><EPOCH>2024-04-27T19:00:40.564224</EPOCH><MEAN_MOTION>14.77163297</MEAN_MOTION><ECCENTRICITY>.0004471</ECCENTRICITY><INCLINATION>48.4421</INCLINATION><RA_OF_ASC_NODE>135.6063</RA_OF_ASC_NODE><ARG_OF_PERICENTER>36.6556</ARG_OF_PERICENTER><MEAN_ANOMALY>133.3413</MEAN_ANOMALY></meanElements><tleParameters><EPHEMERIS_TYPE>0</EPHEMERIS_TYPE><CLASSIFICATION_TYPE>U</CLASSIFICATION_TYPE><NORAD_CAT_ID>33061</NORAD_CAT_ID><ELEMENT_SET_NO>999</ELEMENT_SET_NO><REV_AT_EPOCH>85274</REV_AT_EPOCH><BSTAR>.58902E-3</BSTAR><MEAN_MOTION_DOT>.4007E-4</MEAN_MOTION_DOT><MEAN_MOTION_DDOT>0</MEAN_MOTION_DDOT></tleParameters></data></segment></body></omm>
<omm id="CCSDS_OMM_VERS" version="2.0">
<header><CREATION_DATE/><ORIGINATOR/></header><body><segment><metadata><OBJECT_NAME>ORBCOMM FM29</OBJECT_NAME><OBJECT_ID>2008-031C</OBJECT_ID><CENTER_NAME>EARTH</CENTER_NAME><REF_FRAME>TEME</REF_FRAME><TIME_SYSTEM>UTC</TIME_SYSTEM><MEAN_ELEMENT_THEORY>SGP4</MEAN_ELEMENT_THEORY></metadata><data><meanElements><EPOCH>2024-04-27T12:09:08.017920</EPOCH><MEAN_MOTION>14.77090684</MEAN_MOTION><ECCENTRICITY>.0006312</ECCENTRICITY><INCLINATION>48.4374</INCLINATION><RA_OF_ASC_NODE>144.9942</RA_OF_ASC_NODE><ARG_OF_PERICENTER>35.7451</ARG_OF_PERICENTER><MEAN_ANOMALY>118.1355</MEAN_ANOMALY></meanElements><tleParameters><EPHEMERIS_TYPE>0</EPHEMERIS_TYPE><CLASSIFICATION_TYPE>U</CLASSIFICATION_TYPE><NORAD_CAT_ID>33062</NORAD_CAT_ID><ELEMENT_SET_NO>999</ELEMENT_SET_NO><REV_AT_EPOCH>85261</REV_AT_EPOCH><BSTAR>.68463E-3</BSTAR><MEAN_MOTION_DOT>.4684E-4</MEAN_MOTION_DOT><MEAN_MOTION_DDOT>0</MEAN_MOTION_DDOT></tleParameters></data></segment></body></omm>
<omm id="CCSDS_OMM_VERS" version="2.0">
<header><CREATION_DATE/><ORIGINATOR/></header><body><segment><metadata><OBJECT_NAME>ORBCOMM FM39</OBJECT_NAME><OBJECT_ID>2008-031D</OBJECT_ID><CENTER_NAME>EARTH</CENTER_NAME><REF_FRAME>TEME</REF_FRAME><TIME_SYSTEM>UTC</TIME_SYSTEM><MEAN_ELEMENT_THEORY>SGP4</MEAN_ELEMENT_THEORY></metadata><data><meanElements><EPOCH>2024-04-27T20:09:58.991904</EPOCH><MEAN_MOTION>14.76113750</MEAN_MOTION><ECCENTRICITY>.0007446</ECCENTRICITY><INCLINATION>48.4387</INCLINATION><RA_OF_ASC_NODE>163.8354</RA_OF_ASC_NODE><ARG_OF_PERICENTER>12.8794</ARG_OF_PERICENTER><MEAN_ANOMALY>347.2308</MEAN_ANOMALY></meanElements><tleParameters><EPHEMERIS_TYPE>0</EPHEMERIS_TYPE><CLASSIFICATION_TYPE>U</CLASSIFICATION_TYPE><NORAD_CAT_ID>33063</NORAD_CAT_ID><ELEMENT_SET_NO>999</ELEMENT_SET_NO><REV_AT_EPOCH>85236</REV_AT_EPOCH><BSTAR>.5425E-3</BSTAR><MEAN_MOTION_DOT>.3581E-4</MEAN_MOTION_DOT><MEAN_MOTION_DDOT>0</MEAN_MOTION_DDOT></tleParameters></data></segment></body></omm>

</ndm>
