ORBCOMM FM33            
1 25983U 99065D   24118.85055809  .00002624  00000+0  91252-3 0  9997
2 25983  45.0263 169.9388 0007348 145.0382  25.6393 14.37622128276243
ORBCOMM FM36            
1 25984U 99065E   24118.49057340  .00003710  00000+0  13259-2 0  9997
2 25984  45.0386 256.9218 0002225 354.5043   5.5780 14.35508957275224
ORBCOMM FM35            
1 25985U 99065F   24118.80713639  .00002602  00000+0  95248-3 0  9991
2 25985  45.0388 258.0355 0003260 141.2832 218.8249 14.35093972275077
ORBCOMM FM34            
1 25986U 99065G   24118.70765930  .00002905  00000+0  10584-2 0  9997
2 25986  45.0385 259.0368 0002525  74.0044 286.1082 14.35061416275173
ORBCOMM FM38            
1 33060U 08031A   24118.91982756  .00004419  00000+0  64243-3 0  9996
2 33060  48.4388 128.4106 0005167  53.3623 306.7765 14.77436404853260
ORBCOMM FM41            
1 33061U 08031B   24118.79213616  .00004007  00000+0  58902-3 0  9993
2 33061  48.4421 135.6063 0004471  36.6556 133.3413 14.77163297852740
ORBCOMM FM29            
1 33062U 08031C   24118.50634280  .00004684  00000+0  68463-3 0  9991
2 33062  48.4374 144.9942 0006312  35.7451 118.1355 14.77090684852618
ORBCOMM FM39            
1 33063U 08031D   24118.84026611  .00003581  00000+0  54250-3 0  9996
2 33063  48.4387 163.8354 0007446  12.8794 347.2308 14.76113750852369
